start=new Date('2023-01-23T00:00:00.000Z').valueOf();
sats=[{"CLASSIFICATION_TYPE":"U","NORAD_CAT_ID":"48879","REF_FRAME":"TEME","ARG_OF_PERICENTER":"107.7465","BSTAR":"0.00016998000000","LAUNCH_DATE":"2021-06-30","INCLINATION":"97.5109","EPOCH":"2023-01-22T07:40:53.737824","TLE_LINE2":"2 48879  97.5109 151.3092 0001040 107.7465 252.3873 15.02072765 87386","SEMIMAJOR_AXIS":"6938.643","MEAN_ELEMENT_THEORY":"SGP4","CENTER_NAME":"EARTH","MEAN_MOTION_DDOT":"0.0000000000000","FILE":"3757657","ELEMENT_SET_NO":"999","MEAN_ANOMALY":"252.3873","GP_ID":"223588119","ECCENTRICITY":"0.00010400","MEAN_MOTION":"15.02072765","OBJECT_TYPE":"PAYLOAD","TIME_SYSTEM":"UTC","DECAY_DATE":null,"APOAPSIS":"561.229","EPHEMERIS_TYPE":"0","MEAN_MOTION_DOT":"0.00002174","SITE":"AFETR","OBJECT_NAME":"STARLINK-3003","TLE_LINE1":"1 48879U 21059A   23022.32006641  .00002174  00000-0  16998-3 0  9994","RCS_SIZE":"LARGE","PERIAPSIS":"559.786","REV_AT_EPOCH":"8738","OBJECT_ID":"2021-059A","COUNTRY_CODE":"US","RA_OF_ASC_NODE":"151.3092","PERIOD":"95.868"},{"OBJECT_NAME":"STARLINK-3004","TLE_LINE1":"1 48880U 21059B   23022.78466632  .00006155  00000-0  47306-3 0  9996","DECAY_DATE":null,"TIME_SYSTEM":"UTC","OBJECT_TYPE":"PAYLOAD","EPHEMERIS_TYPE":"0","APOAPSIS":"561.222","MEAN_MOTION_DOT":"0.00006155","SITE":"AFETR","REV_AT_EPOCH":"8745","OBJECT_ID":"2021-059B","PERIAPSIS":"559.792","PERIOD":"95.868","RA_OF_ASC_NODE":"151.7614","COUNTRY_CODE":"US","RCS_SIZE":"LARGE","INCLINATION":"97.5136","TLE_LINE2":"2 48880  97.5136 151.7614 0001030  52.2993 307.8325 15.02073062 87458","SEMIMAJOR_AXIS":"6938.642","MEAN_ELEMENT_THEORY":"SGP4","EPOCH":"2023-01-22T18:49:55.170048","MEAN_MOTION_DDOT":"0.0000000000000","CENTER_NAME":"EARTH","NORAD_CAT_ID":"48880","CLASSIFICATION_TYPE":"U","ARG_OF_PERICENTER":"52.2993","BSTAR":"0.00047306000000","LAUNCH_DATE":"2021-06-30","REF_FRAME":"TEME","MEAN_ANOMALY":"307.8325","GP_ID":"223596723","ECCENTRICITY":"0.00010300","MEAN_MOTION":"15.02073062","ELEMENT_SET_NO":"999","FILE":"3758045"},{"TLE_LINE1":"1 48881U 21059C   23022.78040013  .00008024  00000-0  61507-3 0  9994","OBJECT_NAME":"STARLINK-3005","TIME_SYSTEM":"UTC","OBJECT_TYPE":"PAYLOAD","DECAY_DATE":null,"SITE":"AFETR","MEAN_MOTION_DOT":"0.00008024","APOAPSIS":"560.981","EPHEMERIS_TYPE":"0","PERIAPSIS":"559.963","OBJECT_ID":"2021-059C","REV_AT_EPOCH":"8746","COUNTRY_CODE":"US","RA_OF_ASC_NODE":"151.7825","PERIOD":"95.867","RCS_SIZE":"LARGE","TLE_LINE2":"2 48881  97.5133 151.7825 0000734  80.2780 279.8528 15.02084431 87461","SEMIMAJOR_AXIS":"6938.607","MEAN_ELEMENT_THEORY":"SGP4","EPOCH":"2023-01-22T18:43:46.571232","INCLINATION":"97.5133","CENTER_NAME":"EARTH","MEAN_MOTION_DDOT":"0.0000000000000","CLASSIFICATION_TYPE":"U","NORAD_CAT_ID":"48881","REF_FRAME":"TEME","LAUNCH_DATE":"2021-06-30","ARG_OF_PERICENTER":"80.2780","BSTAR":"0.00061507000000","ELEMENT_SET_NO":"999","GP_ID":"223597305","ECCENTRICITY":"0.00007340","MEAN_MOTION":"15.02084431","MEAN_ANOMALY":"279.8528","FILE":"3758048"},{"TLE_LINE1":"1 49131U 21082B   23021.89652832  .00003007  00000-0  25967-3 0  9994","OBJECT_NAME":"STARLINK-3096","SITE":"AFWTR","MEAN_MOTION_DOT":"0.00003007","EPHEMERIS_TYPE":"0","APOAPSIS":"573.939","DECAY_DATE":null,"TIME_SYSTEM":"UTC","OBJECT_TYPE":"PAYLOAD","RA_OF_ASC_NODE":"255.8427","PERIOD":"96.107","COUNTRY_CODE":"US","OBJECT_ID":"2021-082B","REV_AT_EPOCH":"7578","PERIAPSIS":"570.139","RCS_SIZE":"LARGE","MEAN_MOTION_DDOT":"0.0000000000000","CENTER_NAME":"EARTH","SEMIMAJOR_AXIS":"6950.174","TLE_LINE2":"2 49131  70.0014 255.8427 0002734 269.4472  90.6374 14.98336162 75784","EPOCH":"2023-01-21T21:31:00.046848","MEAN_ELEMENT_THEORY":"SGP4","INCLINATION":"70.0014","LAUNCH_DATE":"2021-09-14","BSTAR":"0.00025967000000","ARG_OF_PERICENTER":"269.4472","REF_FRAME":"TEME","CLASSIFICATION_TYPE":"U","NORAD_CAT_ID":"49131","GP_ID":"223586414","MEAN_MOTION":"14.98336162","ECCENTRICITY":"0.00027340","MEAN_ANOMALY":"90.6374","ELEMENT_SET_NO":"999","FILE":"3757533"},{"REF_FRAME":"TEME","LAUNCH_DATE":"2021-09-14","BSTAR":"0.00052272000000","ARG_OF_PERICENTER":"252.3433","NORAD_CAT_ID":"49132","CLASSIFICATION_TYPE":"U","CENTER_NAME":"EARTH","MEAN_MOTION_DDOT":"0.0000000000000","SEMIMAJOR_AXIS":"6950.162","TLE_LINE2":"2 49132  70.0061 295.0860 0002054 252.3433 107.7502 14.98340036 74841","EPOCH":"2023-01-22T04:42:44.568288","MEAN_ELEMENT_THEORY":"SGP4","INCLINATION":"70.0061","FILE":"3757533","ELEMENT_SET_NO":"999","GP_ID":"223586412","MEAN_MOTION":"14.98340036","ECCENTRICITY":"0.00020540","MEAN_ANOMALY":"107.7502","SITE":"AFWTR","MEAN_MOTION_DOT":"0.00006151","APOAPSIS":"573.454","EPHEMERIS_TYPE":"0","OBJECT_TYPE":"PAYLOAD","TIME_SYSTEM":"UTC","DECAY_DATE":null,"TLE_LINE1":"1 49132U 21082C   23022.19634917  .00006151  00000-0  52272-3 0  9995","OBJECT_NAME":"STARLINK-3090","RCS_SIZE":"LARGE","COUNTRY_CODE":"US","RA_OF_ASC_NODE":"295.0860","PERIOD":"96.106","PERIAPSIS":"570.599","OBJECT_ID":"2021-082C","REV_AT_EPOCH":"7484"},{"SITE":"AFWTR","MEAN_MOTION_DOT":"0.00011615","APOAPSIS":"573.958","EPHEMERIS_TYPE":"0","TIME_SYSTEM":"UTC","OBJECT_TYPE":"PAYLOAD","DECAY_DATE":null,"TLE_LINE1":"1 49133U 21082D   23022.19158630  .00011615  00000-0  97975-3 0  9999","OBJECT_NAME":"STARLINK-3077","RCS_SIZE":"LARGE","COUNTRY_CODE":"US","PERIOD":"96.107","RA_OF_ASC_NODE":"295.0900","PERIAPSIS":"570.195","OBJECT_ID":"2021-082D","REV_AT_EPOCH":"7484","REF_FRAME":"TEME","LAUNCH_DATE":"2021-09-14","BSTAR":"0.00097975000000","ARG_OF_PERICENTER":"269.5081","NORAD_CAT_ID":"49133","CLASSIFICATION_TYPE":"U","CENTER_NAME":"EARTH","MEAN_MOTION_DDOT":"0.0000000000000","SEMIMAJOR_AXIS":"6950.211","TLE_LINE2":"2 49133  70.0030 295.0900 0002707 269.5081  90.5768 14.98324083 74844","MEAN_ELEMENT_THEORY":"SGP4","EPOCH":"2023-01-22T04:35:53.056320","INCLINATION":"70.0030","FILE":"3757533","ELEMENT_SET_NO":"999","GP_ID":"223586405","ECCENTRICITY":"0.00027070","MEAN_MOTION":"14.98324083","MEAN_ANOMALY":"90.5768"},{"REV_AT_EPOCH":"7608","OBJECT_ID":"2021-082E","PERIAPSIS":"570.119","PERIOD":"96.106","RA_OF_ASC_NODE":"294.4464","COUNTRY_CODE":"US","RCS_SIZE":"LARGE","OBJECT_NAME":"STARLINK-3078","TLE_LINE1":"1 49134U 21082E   23022.45384877  .00004815  00000-0  41096-3 0  9990","DECAY_DATE":null,"OBJECT_TYPE":"PAYLOAD","TIME_SYSTEM":"UTC","EPHEMERIS_TYPE":"0","APOAPSIS":"573.929","MEAN_MOTION_DOT":"0.00004815","SITE":"AFWTR","MEAN_ANOMALY":"88.0697","ECCENTRICITY":"0.00027410","GP_ID":"223594775","MEAN_MOTION":"14.98340982","ELEMENT_SET_NO":"999","FILE":"3757916","INCLINATION":"70.0005","MEAN_ELEMENT_THEORY":"SGP4","TLE_LINE2":"2 49134  70.0005 294.4464 0002741 272.0148  88.0697 14.98340982 76083","SEMIMAJOR_AXIS":"6950.159","EPOCH":"2023-01-22T10:53:32.533728","MEAN_MOTION_DDOT":"0.0000000000000","CENTER_NAME":"EARTH","NORAD_CAT_ID":"49134","CLASSIFICATION_TYPE":"U","BSTAR":"0.00041096000000","ARG_OF_PERICENTER":"272.0148","LAUNCH_DATE":"2021-09-14","REF_FRAME":"TEME"},{"INCLINATION":"70.0005","TLE_LINE2":"2 49135  70.0005 254.6724 0002352 281.6277  78.4617 14.98343433 75862","SEMIMAJOR_AXIS":"6950.151","EPOCH":"2023-01-22T08:40:00.577920","MEAN_ELEMENT_THEORY":"SGP4","CENTER_NAME":"EARTH","MEAN_MOTION_DDOT":"0.0000000000000","CLASSIFICATION_TYPE":"U","NORAD_CAT_ID":"49135","REF_FRAME":"TEME","BSTAR":"0.00015273000000","ARG_OF_PERICENTER":"281.6277","LAUNCH_DATE":"2021-09-14","ELEMENT_SET_NO":"999","MEAN_ANOMALY":"78.4617","ECCENTRICITY":"0.00023520","GP_ID":"223594767","MEAN_MOTION":"14.98343433","FILE":"3757916","OBJECT_NAME":"STARLINK-3073","TLE_LINE1":"1 49135U 21082F   23022.36111780  .00001730  00000-0  15273-3 0  9993","OBJECT_TYPE":"PAYLOAD","TIME_SYSTEM":"UTC","DECAY_DATE":null,"APOAPSIS":"573.651","EPHEMERIS_TYPE":"0","MEAN_MOTION_DOT":"0.00001730","SITE":"AFWTR","PERIAPSIS":"570.382","REV_AT_EPOCH":"7586","OBJECT_ID":"2021-082F","COUNTRY_CODE":"US","RA_OF_ASC_NODE":"254.6724","PERIOD":"96.106","RCS_SIZE":"LARGE"},{"COUNTRY_CODE":"US","PERIOD":"96.107","RA_OF_ASC_NODE":"273.6685","PERIAPSIS":"570.113","REV_AT_EPOCH":"7543","OBJECT_ID":"2021-082G","RCS_SIZE":"LARGE","OBJECT_NAME":"STARLINK-3084","TLE_LINE1":"1 49136U 21082G   23022.75560226  .00001492  00000-0  13283-3 0  9994","EPHEMERIS_TYPE":"0","APOAPSIS":"574.044","SITE":"AFWTR","MEAN_MOTION_DOT":"0.00001492","OBJECT_TYPE":"PAYLOAD","TIME_SYSTEM":"UTC","DECAY_DATE":null,"ELEMENT_SET_NO":"999","MEAN_ANOMALY":"90.5557","ECCENTRICITY":"0.00028280","GP_ID":"223600600","MEAN_MOTION":"14.98323289","FILE":"3758185","CENTER_NAME":"EARTH","MEAN_MOTION_DDOT":"0.0000000000000","INCLINATION":"70.0008","EPOCH":"2023-01-22T18:08:04.035264","TLE_LINE2":"2 49136  70.0008 273.6685 0002828 269.5278  90.5557 14.98323289 75435","SEMIMAJOR_AXIS":"6950.214","MEAN_ELEMENT_THEORY":"SGP4","REF_FRAME":"TEME","BSTAR":"0.00013283000000","ARG_OF_PERICENTER":"269.5278","LAUNCH_DATE":"2021-09-14","NORAD_CAT_ID":"49136","CLASSIFICATION_TYPE":"U"},{"TLE_LINE1":"1 49137U 21082H   23022.41701393  .00000397  00000-0  41058-4 0  9995","OBJECT_NAME":"STARLINK-3055","TIME_SYSTEM":"UTC","OBJECT_TYPE":"PAYLOAD","DECAY_DATE":null,"MEAN_MOTION_DOT":"0.00000397","SITE":"AFWTR","EPHEMERIS_TYPE":"0","APOAPSIS":"573.177","PERIAPSIS":"570.810","OBJECT_ID":"2021-082H","REV_AT_EPOCH":"7537","COUNTRY_CODE":"US","PERIOD":"96.106","RA_OF_ASC_NODE":"274.5342","RCS_SIZE":"LARGE","SEMIMAJOR_AXIS":"6950.129","TLE_LINE2":"2 49137  70.0018 274.5342 0001703 265.4872  94.6093 14.98350697 75379","EPOCH":"2023-01-22T10:00:30.003552","MEAN_ELEMENT_THEORY":"SGP4","INCLINATION":"70.0018","CENTER_NAME":"EARTH","MEAN_MOTION_DDOT":"0.0000000000000","CLASSIFICATION_TYPE":"U","NORAD_CAT_ID":"49137","REF_FRAME":"TEME","LAUNCH_DATE":"2021-09-14","ARG_OF_PERICENTER":"265.4872","BSTAR":"0.00004105800000","ELEMENT_SET_NO":"999","GP_ID":"223594770","ECCENTRICITY":"0.00017030","MEAN_MOTION":"14.98350697","MEAN_ANOMALY":"94.6093","FILE":"3757916"}];
